{
  "type": "FeatureCollection",
  "features": [
    {
      "type": "Feature",
      "properties": {
        "norad_id": 33913,
        "name": "COSMOS 2251 DEB",
        "group": "cosmos-2251-debris",
        "lat": 65.62813503848221,
        "lon": -130.91569945871595,
        "alt_km": 749.4147474635683,
        "timestamp": "2025-12-09T09:46:48.038565+00:00",
        "meta_object_name": "COSMOS 2251 DEB",
        "meta_object_id": "1993-036DS",
        "meta_epoch": "2025-12-08T22:22:11.050176",
        "meta_mean_motion": 14.48462521,
        "meta_eccentricity": 0.0048163,
        "meta_inclination": 74.0334,
        "meta_ra_of_asc_node": 190.7788,
        "meta_arg_of_pericenter": 294.0693,
        "meta_mean_anomaly": 178.8482,
        "meta_ephemeris_type": 0,
        "meta_classification_type": "U",
        "meta_norad_cat_id": 33913,
        "meta_element_set_no": 999,
        "meta_rev_at_epoch": 88402,
        "meta_bstar": 0.00064159,
        "meta_mean_motion_dot": 2.413e-05,
        "meta_mean_motion_ddot": 0,
        "tle_line1": "1 33913U 93036DS  25342.93207234  .00002413  00000+0  64159-3 0  9993",
        "tle_line2": "2 33913  74.0334 190.7788 0048163 294.0693 178.8482 14.48462521884024"
      },
      "geometry": {
        "type": "Point",
        "coordinates": [
          -130.91569945871595,
          65.62813503848221
        ]
      }
    },
    {
      "type": "Feature",
      "properties": {
        "norad_id": 33914,
        "name": "COSMOS 2251 DEB",
        "group": "cosmos-2251-debris",
        "lat": -54.175324025581155,
        "lon": -136.1429544663053,
        "alt_km": 1080.0998759842114,
        "timestamp": "2025-12-09T09:46:48.038576+00:00",
        "meta_object_name": "COSMOS 2251 DEB",
        "meta_object_id": "1993-036DT",
        "meta_epoch": "2025-12-09T01:49:51.716928",
        "meta_mean_motion": 13.71980123,
        "meta_eccentricity": 0.0301472,
        "meta_inclination": 74.0914,
        "meta_ra_of_asc_node": 21.1322,
        "meta_arg_of_pericenter": 125.0597,
        "meta_mean_anomaly": 273.8868,
        "meta_ephemeris_type": 0,
        "meta_classification_type": "U",
        "meta_norad_cat_id": 33914,
        "meta_element_set_no": 999,
        "meta_rev_at_epoch": 84031,
        "meta_bstar": 0.00062784,
        "meta_mean_motion_dot": 7.68e-06,
        "meta_mean_motion_ddot": 0,
        "tle_line1": "1 33914U 93036DT  25343.07629302  .00000768  00000+0  62784-3 0  9997",
        "tle_line2": "2 33914  74.0914  21.1322 0301472 125.0597 273.8868 13.71980123840317"
      },
      "geometry": {
        "type": "Point",
        "coordinates": [
          -136.1429544663053,
          -54.175324025581155
        ]
      }
    },
    {
      "type": "Feature",
      "properties": {
        "norad_id": 33915,
        "name": "COSMOS 2251 DEB",
        "group": "cosmos-2251-debris",
        "lat": -38.884512484831596,
        "lon": 26.874526348510802,
        "alt_km": 855.3865383847115,
        "timestamp": "2025-12-09T09:46:48.038587+00:00",
        "meta_object_name": "COSMOS 2251 DEB",
        "meta_object_id": "1993-036DU",
        "meta_epoch": "2025-12-09T03:24:50.259168",
        "meta_mean_motion": 14.35069624,
        "meta_eccentricity": 0.0104598,
        "meta_inclination": 74.0442,
        "meta_ra_of_asc_node": 40.7,
        "meta_arg_of_pericenter": 134.2099,
        "meta_mean_anomaly": 255.4305,
        "meta_ephemeris_type": 0,
        "meta_classification_type": "U",
        "meta_norad_cat_id": 33915,
        "meta_element_set_no": 999,
        "meta_rev_at_epoch": 87706,
        "meta_bstar": 0.00053524,
        "meta_mean_motion_dot": 1.598e-05,
        "meta_mean_motion_ddot": 0,
        "tle_line1": "1 33915U 93036DU  25343.14224837  .00001598  00000+0  53524-3 0  9994",
        "tle_line2": "2 33915  74.0442  40.7000 0104598 134.2099 255.4305 14.35069624877062"
      },
      "geometry": {
        "type": "Point",
        "coordinates": [
          26.874526348510802,
          -38.884512484831596
        ]
      }
    },
    {
      "type": "Feature",
      "properties": {
        "norad_id": 33916,
        "name": "COSMOS 2251 DEB",
        "group": "cosmos-2251-debris",
        "lat": 1.7867162908304983,
        "lon": -134.4470883462435,
        "alt_km": 821.9354479649737,
        "timestamp": "2025-12-09T09:46:48.038598+00:00",
        "meta_object_name": "COSMOS 2251 DEB",
        "meta_object_id": "1993-036DV",
        "meta_epoch": "2025-12-09T03:46:06.268800",
        "meta_mean_motion": 13.68607088,
        "meta_eccentricity": 0.0325421,
        "meta_inclination": 74.0529,
        "meta_ra_of_asc_node": 46.4753,
        "meta_arg_of_pericenter": 219.3779,
        "meta_mean_anomaly": 167.386,
        "meta_ephemeris_type": 0,
        "meta_classification_type": "U",
        "meta_norad_cat_id": 33916,
        "meta_element_set_no": 999,
        "meta_rev_at_epoch": 83842,
        "meta_bstar": 0.00071697,
        "meta_mean_motion_dot": 8.67e-06,
        "meta_mean_motion_ddot": 0,
        "tle_line1": "1 33916U 93036DV  25343.15701700  .00000867  00000+0  71697-3 0  9994",
        "tle_line2": "2 33916  74.0529  46.4753 0325421 219.3779 167.3860 13.68607088838428"
      },
      "geometry": {
        "type": "Point",
        "coordinates": [
          -134.4470883462435,
          1.7867162908304983
        ]
      }
    },
    {
      "type": "Feature",
      "properties": {
        "norad_id": 33917,
        "name": "COSMOS 2251 DEB",
        "group": "cosmos-2251-debris",
        "lat": -63.681087160392806,
        "lon": -16.97417289865336,
        "alt_km": 777.0026287681949,
        "timestamp": "2025-12-09T09:46:48.038608+00:00",
        "meta_object_name": "COSMOS 2251 DEB",
        "meta_object_id": "1993-036DW",
        "meta_epoch": "2025-12-08T16:46:50.748672",
        "meta_mean_motion": 13.69349771,
        "meta_eccentricity": 0.03311992,
        "meta_inclination": 74.1067,
        "meta_ra_of_asc_node": 129.0184,
        "meta_arg_of_pericenter": 230.8612,
        "meta_mean_anomaly": 126.2643,
        "meta_ephemeris_type": 0,
        "meta_classification_type": "U",
        "meta_norad_cat_id": 33917,
        "meta_element_set_no": 999,
        "meta_rev_at_epoch": 83678,
        "meta_bstar": 0.0012274509,
        "meta_mean_motion_dot": 1.544e-05,
        "meta_mean_motion_ddot": 0,
        "tle_line1": "1 33917U 93036DW  25342.69919848  .00001544  00000+0  12275-2 0  9996",
        "tle_line2": "2 33917  74.1067 129.0184 0331199 230.8612 126.2643 13.69349771836789"
      },
      "geometry": {
        "type": "Point",
        "coordinates": [
          -16.97417289865336,
          -63.681087160392806
        ]
      }
    },
    {
      "type": "Feature",
      "properties": {
        "norad_id": 33920,
        "name": "COSMOS 2251 DEB",
        "group": "cosmos-2251-debris",
        "lat": -15.033553079386209,
        "lon": -59.64311916811005,
        "alt_km": 680.526902013391,
        "timestamp": "2025-12-09T09:46:48.038619+00:00",
        "meta_object_name": "COSMOS 2251 DEB",
        "meta_object_id": "1993-036DZ",
        "meta_epoch": "2025-12-08T22:19:30.651168",
        "meta_mean_motion": 14.58164734,
        "meta_eccentricity": 0.0038404,
        "meta_inclination": 74.062,
        "meta_ra_of_asc_node": 305.6649,
        "meta_arg_of_pericenter": 312.8284,
        "meta_mean_anomaly": 46.9655,
        "meta_ephemeris_type": 0,
        "meta_classification_type": "U",
        "meta_norad_cat_id": 33920,
        "meta_element_set_no": 999,
        "meta_rev_at_epoch": 88059,
        "meta_bstar": 0.0026516,
        "meta_mean_motion_dot": 0.00012344,
        "meta_mean_motion_ddot": 0,
        "tle_line1": "1 33920U 93036DZ  25342.93021587  .00012344  00000+0  26516-2 0  9994",
        "tle_line2": "2 33920  74.0620 305.6649 0038404 312.8284  46.9655 14.58164734880596"
      },
      "geometry": {
        "type": "Point",
        "coordinates": [
          -59.64311916811005,
          -15.033553079386209
        ]
      }
    },
    {
      "type": "Feature",
      "properties": {
        "norad_id": 33922,
        "name": "COSMOS 2251 DEB",
        "group": "cosmos-2251-debris",
        "lat": -48.083673302916125,
        "lon": -7.408780925155937,
        "alt_km": 720.1455876711943,
        "timestamp": "2025-12-09T09:46:48.038629+00:00",
        "meta_object_name": "COSMOS 2251 DEB",
        "meta_object_id": "1993-036EB",
        "meta_epoch": "2025-12-09T04:18:22.178304",
        "meta_mean_motion": 14.49486171,
        "meta_eccentricity": 0.0023262,
        "meta_inclination": 74.0465,
        "meta_ra_of_asc_node": 154.4386,
        "meta_arg_of_pericenter": 265.4595,
        "meta_mean_anomaly": 215.667,
        "meta_ephemeris_type": 0,
        "meta_classification_type": "U",
        "meta_norad_cat_id": 33922,
        "meta_element_set_no": 999,
        "meta_rev_at_epoch": 88526,
        "meta_bstar": 0.00059562,
        "meta_mean_motion_dot": 2.263e-05,
        "meta_mean_motion_ddot": 0,
        "tle_line1": "1 33922U 93036EB  25343.17942336  .00002263  00000+0  59562-3 0  9994",
        "tle_line2": "2 33922  74.0465 154.4386 0023262 265.4595 215.6670 14.49486171885260"
      },
      "geometry": {
        "type": "Point",
        "coordinates": [
          -7.408780925155937,
          -48.083673302916125
        ]
      }
    }
  ]
}